GALILEO 24 (2C0)
1 43567U 18060D   19301.37092038 -.00000079 +00000-0 +00000-0 0  9993
2 43567 056.6591 047.4399 0003791 250.5864 109.3634 01.70475832007858
GALILEO 23 (2C9)
1 43566U 18060C   19302.32422354 -.00000080  00000-0  00000+0 0  9997
2 43566  56.6601  47.4136 0003786 249.8179 110.1350  1.70476045  7887
GALILEO 26 (2C2)
1 43565U 18060B   19301.51755945 -.00000079  00000-0  00000+0 0  9999
2 43565  56.6590  47.4341 0003899 256.9281 103.0196  1.70476189  7898
GALILEO 25 (2C1)
1 43564U 18060A   19299.53792916 -.00000073  00000-0  00000+0 0  9999
2 43564  56.6555  47.4896 0004295 249.5071 110.4354  1.70476118  7822
GALILEO 22 (2C8)
1 43058U 17079D   19301.39617133 -.00000030  00000-0  00000+0 0  9994
2 43058  56.4549 288.1849 0006364 261.8487  98.0564  1.70473717 11663
GALILEO 21 (2C7)
1 43057U 17079C   19301.76278383 -.00000030  00000-0  00000+0 0  9994
2 43057  56.4543 288.1778 0005344 272.8199  87.0950  1.70473763 11675
GALILEO 20 (2C6)
1 43056U 17079B   19302.12936482 -.00000031  00000-0  00000+0 0  9996
2 43056  56.4559 288.1666 0005882 264.6792  95.2287  1.70473730 11669
GALILEO 19 (2C5)
1 43055U 17079A   19301.83643554 -.00000030  00000-0  00000+0 0  9996
2 43055  56.4560 288.1751 0003988 260.9198  99.0110  1.70473606 11679
GALILEO 18 (26E)
1 41862U 16069D   19301.34815560  .00000045  00000-0  00000+0 0  9997
2 41862  54.6138 168.3166 0001246 308.6953  51.4043  1.70473034 18328
GALILEO 17 (26D)
1 41861U 16069C   19301.20117779  .00000045  00000-0  00000+0 0  9998
2 41861  54.6154 168.3249 0001769 286.6249  73.4666  1.70473146 18330
GALILEO 16 (26C)
1 41860U 16069B   19302.00838718  .00000041  00000-0  00000+0 0  9995
2 41860  54.6135 168.2991 0002983 349.8385  10.2649  1.70472958 18344
GALILEO 15 (267)
1 41859U 16069A   19302.15492921  .00000041  00000-0  00000+0 0  9991
2 41859  54.6158 168.2958 0003081 315.7367  44.3476  1.70473003 18328
GALILEO 13 (26A)
1 41550U 16030B   19301.90978386 -.00000031  00000-0  00000+0 0  9993
2 41550  56.4808 288.3272 0004620 266.1626  93.7605  1.70474441 21332
GALILEO 14 (26B)
1 41549U 16030A   19301.61676519 -.00000030  00000-0  00000+0 0  9991
2 41549  56.4810 288.3334 0004580 289.3463  70.5809  1.70474482 21337
GALILEO 11 (268)
1 41175U 15079B   19301.49508726 +.00000045 +00000-0 +00000-0 0  9994
2 41175 054.9562 167.8927 0002970 337.3818 022.7158 01.70473005024044
GALILEO 12 (269)
1 41174U 15079A   19301.27527347  .00000046  00000-0  00000+0 0  9999
2 41174  54.9575 167.8990 0003689 330.1660  29.9240  1.70473031 24030
GALILEO 10 (206)
1 40890U 15045B   19301.68957630 -.00000031  00000-0  00000+0 0  9998
2 40890  56.3396 288.4991 0002658 303.0087  56.9425  1.70474691 25724
GALILEO 9 (205)
1 40889U 15045A   19300.88335358 -.00000028  00000-0  00000+0 0  9990
2 40889  56.3420 288.5246 0003383 333.0064  26.9563  1.70474687 25688
GSAT0204
1 40545U 15017B   19302.39991217 -.00000080  00000-0  00000+0 0  9996
2 40545  56.2740  47.8594 0003339 192.1064 167.8786  1.70475312 28566
GSAT0203
1 40544U 15017A   19301.44503012 -.00000079 +00000-0 +00000-0 0  9991
2 40544 056.2669 047.8711 0004186 228.6106 131.3437 01.70475112027880
GALILEO 6 (262)
1 40129U 14050B   19302.35404982 -.00000112  00000-0  00000+0 0  9990
2 40129  50.6203   9.6646 1663283  92.7492 286.3219  1.85519966 35501
GALILEO 5 (261)
1 40128U 14050A   19301.55042462 -.00000109 +00000-0 +00000-0 0  9998
2 40128 050.5789 010.6686 1664721 091.8831 287.1748 01.85519361033388
GALILEO-FM4
1 38858U 12055B   19301.64157651 +.00000044 +00000-0 +00000-0 0  9992
2 38858 054.9442 168.1925 0000493 312.7106 047.3956 01.70473772043841
GALILEO-FM3
1 38857U 12055A   19301.70728295 +.00000044 +00000-0 +00000-0 0  9996
2 38857 054.9430 168.1913 0001500 265.2147 094.8784 01.70473799043846
GALILEO-FM2
1 37847U 11060B   19302.19582758 -.00000080  00000-0  00000+0 0  9995
2 37847  56.4761  47.6830 0003116 290.7545  81.1135  1.70475461 49941
GALILEO-PFM
1 37846U 11060A   19302.25146847 -.00000080  00000-0  00000+0 0  9996
2 37846  56.4753  47.6824 0001236 318.5677  41.4157  1.70475427 49945
